# From MPC106342
C/1995 O1 (Hale-Bopp),e,89.1597,283.0016,130.4451,177.6346,0.0004163,0.99496508,0.0000,03/29.7224/1997,2000,g -2.0,4.0
# From MPC 27287
C/1996 B2 (Hyakutake),e,125.6438,186.7595,129.3876,1532,0.0000164,0.99985110,0.0000,04/20.2340/1996,2000,g 10.0,4.0
# From NK 1615
P/1996 R2 (Lagerkvist),e,2.6007,40.0132,333.3525,3.774920,0.1343824,0.31439059,143.8929,01/18.0/2022,2000,g 11.5,4.0
# From MPEC 2021-AG4
P/1997 B1 (Kobayashi),e,12.3396,328.8821,183.3205,8.583777,0.0391910,0.76045196,357.2192,01/18.0/2022,2000,g 16.0,4.0
# From MPC 75703
P/1998 VS24 (LINEAR),e,5.0265,159.0386,244.6064,4.527027,0.1023256,0.24266837,149.4175,01/18.0/2022,2000,g 13.0,2.0
# From NK 731
P/1999 RO28 (LONEOS),e,7.5669,137.8832,231.2721,3.426679,0.1553796,0.67238935,145.5116,01/18.0/2022,2000,g 20.0,2.0
# From MPC 75704
P/1999 XN120 (Catalina),e,5.0298,285.2961,161.7628,4.178922,0.1153739,0.21026655,194.3015,01/18.0/2022,2000,g 13.5,2.0
# From NK 744
P/2000 R2 (LINEAR),e,11.6871,160.2857,176.5644,3.467203,0.1526635,0.53156672,144.3189,01/18.0/2022,2000,g 18.0,4.0
# From MPC 43019
P/2001 H5 (NEAT),e,8.3672,328.6852,224.8055,6.096940,0.0654691,0.59827229,149.6228,01/18.0/2022,2000,g 12.0,4.0
# From MPC 75704
P/2001 Q6 (NEAT),e,56.9111,22.1744,42.9314,7.955418,0.0439248,0.82314614,326.1088,01/18.0/2022,2000,g 13.5,4.0
# From MPC 47727
P/2002 EJ57 (LINEAR),e,4.9765,330.3211,167.3281,6.467281,0.0599269,0.59230384,78.5266,01/18.0/2022,2000,g 12.5,4.0
# From MPEC 2021-W31
C/2002 O4 (Hoenig),h,09/30.5827/2002,73.1859,322.0263,105.3997,1.000255,0.760839,2000,9.5,4.0
# From MPC109588
P/2002 T6 (NEAT-LINEAR),e,10.8432,206.1548,219.6562,7.701207,0.0461175,0.56137342,317.7942,01/18.0/2022,2000,g 10.5,4.0
# From MPC 75007
C/2002 VQ94 (LINEAR),e,70.6492,35.0960,100.0652,184.5765,0.0003930,0.96304341,2.2930,01/18.0/2022,2000,g  9.5,2.0
# From MPC 50354
P/2003 F2 (NEAT),e,11.6082,359.0096,192.2127,6.502456,0.0594413,0.54190886,47.3968,01/18.0/2022,2000,g 16.5,2.0
# From MPC 50139
P/2003 QX29 (NEAT),e,11.3911,264.5439,37.5749,8.022359,0.0433761,0.47285564,303.7894,01/18.0/2022,2000,g  8.5,4.0
# From MPC105235
P/2003 T12 (SOHO),e,11.0214,174.5819,219.7477,2.585782,0.2370370,0.76992535,147.1988,01/18.0/2022,2000,g 17.0,4.0
# From MPC 82312
P/2004 A1 (LONEOS),e,10.5517,124.8538,21.1909,7.965678,0.0438399,0.30952526,279.8677,01/18.0/2022,2000,g  6.5,4.0
# From MPC 54558
P/2004 DO29 (Spacewatch-LINEAR),e,14.5322,147.3731,40.5978,7.289734,0.0500768,0.44111815,316.5197,01/18.0/2022,2000,g 13.5,2.0
# From MPC 54823
P/2004 FY140 (LINEAR),e,2.1348,326.7692,242.2804,4.904953,0.0907302,0.16798348,215.3531,01/18.0/2022,2000,g 12.5,2.0
# From MPC 53304
P/2004 R3 (LINEAR-NEAT),e,12.7860,305.3934,37.8469,4.776419,0.0944170,0.25738245,11.1331,01/18.0/2022,2000,g 14.5,4.0
# From MPC 55521
P/2004 V3 (Siding Spring),e,50.4432,356.1284,322.4150,7.135895,0.0517049,0.44619622,325.1723,01/18.0/2022,2000,g 11.5,4.0
# From MPC 75705
P/2004 V5 (LINEAR-Hill),e,19.3402,47.7902,87.6363,7.983508,0.0436932,0.44396189,271.0113,01/18.0/2022,2000,g  8.0,4.0
# From MPC 54164
P/2005 E1 (Tubbiolo),e,4.2636,335.5701,193.9751,7.044789,0.0527111,0.37526273,327.3716,01/18.0/2022,2000,g 10.0,4.0
# From MPC 54823
P/2005 GF8 (LONEOS),e,1.1848,314.5536,284.5575,5.806473,0.0704426,0.51700983,59.4691,01/18.0/2022,2000,g 11.5,4.0
# From MPC 79019
P/2005 J1 (McNaught),e,31.7515,268.8213,338.9535,3.571093,0.1460502,0.56931734,174.3688,01/18.0/2022,2000,g 16.5,4.0
# From MPC 74246
P/2005 L1 (McNaught),e,7.7384,138.2486,149.7571,3.978624,0.1241952,0.21012481,9.4519,01/18.0/2022,2000,g  9.5,4.0
# From MPC 75706
P/2005 S2 (Skiff),e,3.1357,161.2186,229.2507,8.010792,0.0434701,0.19797966,248.9464,01/18.0/2022,2000,g  7.5,4.0
# From MPC 75706
P/2005 SB216 (LONEOS),e,24.1007,1.1505,83.3135,7.137655,0.0516857,0.46412342,284.5429,01/18.0/2022,2000,g 12.0,2.0
# From MPEC 2021-W47
P/2005 T2 (Christensen),e,8.2886,260.1565,58.9315,3.846651,0.1306411,0.41581258,85.2602,01/18.0/2022,2000,g 14.5,4.0
# From MPC 73461
P/2005 T3 (Read),e,6.2235,27.6958,6.7195,7.585670,0.0471751,0.17488985,281.1620,01/18.0/2022,2000,g  9.0,4.0
# From MPC 73461
P/2005 T4 (SWAN),e,160.2413,25.8378,41.7465,9.360765,0.0344141,0.92971547,204.7816,01/18.0/2022,2000,g 15.0,4.0
# From MPC 75706
P/2005 T5 (Broughton),e,21.3698,56.9995,304.6227,7.285876,0.0501166,0.55254523,297.6976,01/18.0/2022,2000,g 11.0,4.0
# From MPC 75706
P/2005 Y2 (McNaught),e,19.0452,94.2778,193.7874,6.358305,0.0614741,0.46912145,28.0752,01/18.0/2022,2000,g  9.0,4.0
# From MPC 56954
P/2006 F4 (Spacewatch),e,12.4423,183.8245,30.7493,3.516747,0.1494488,0.34127827,134.4157,01/18.0/2022,2000,g 15.0,4.0
# From MPC 75707
P/2006 HR30 (Siding Spring),e,31.8401,309.8778,117.3192,7.810397,0.0451538,0.84267206,249.0407,01/18.0/2022,2000,g 11.0,4.0
# From MPC 75707
P/2007 A2 (Christensen),e,26.4873,300.9108,186.7112,6.332333,0.0618527,0.55804506,340.5099,01/18.0/2022,2000,g 13.5,4.0
# From MPC 75707
P/2007 C2 (Catalina),e,8.6191,275.4045,180.1256,6.993958,0.0532868,0.47152795,278.6549,01/18.0/2022,2000,g 10.0,4.0
# From MPC 84315
C/2007 D1 (LINEAR),e,41.5017,171.2289,339.9143,1290,0.0000213,0.99317426,0.0000,06/07.4977/2007,2000,g  3.5,4.0
# From MPC 82314
P/2007 K2 (Gibbs),e,7.6290,188.6374,347.3990,7.269796,0.0502830,0.68296630,269.0849,01/18.0/2022,2000,g 14.0,4.0
# From MPC 60925
P/2007 Q2 (Gilmore),e,10.2026,172.1562,162.8080,5.654557,0.0733004,0.67011588,30.5669,01/18.0/2022,2000,g 16.0,4.0
# From MPC 73462
P/2007 S1 (Zhao),e,5.9639,141.3702,245.3787,3.821755,0.1319198,0.33975433,325.3755,01/18.0/2022,2000,g 13.0,4.0
# From MPC 61994
P/2007 T2 (Kowalski),e,9.7514,3.3763,359.6482,3.046430,0.1853605,0.78557032,236.0726,01/18.0/2022,2000,g 18.5,4.0
# From MPC 75709
P/2008 L2 (Hill),e,25.8669,218.0144,141.2471,6.027364,0.0666059,0.61333180,328.1581,01/18.0/2022,2000,g 12.5,4.0
# From MPC 64114
P/2008 O3 (Boattini),e,32.3017,47.5740,341.1290,8.218544,0.0418323,0.69594384,208.4609,01/18.0/2022,2000,g 13.0,4.0
# From MPEC 2021-X81
P/2008 WZ96 (LINEAR),e,7.1144,56.4183,341.9915,3.487294,0.1513461,0.46944746,21.9312,01/18.0/2022,2000,g 17.2,4.0
# From MPC 75710
P/2008 Y3 (McNaught),e,38.7728,262.8262,238.1264,8.047511,0.0431729,0.44554727,206.3035,01/18.0/2022,2000,g  8.5,4.0
# From MPC 75710
P/2009 B1 (Boattini),e,22.2261,297.0830,128.8803,6.737407,0.0563592,0.63520548,268.3889,01/18.0/2022,2000,g 13.0,4.0
# From MPC 66466
C/2009 G1 (STEREO),e,108.6515,120.4846,175.4667,451.8284,0.0001026,0.99747995,0.0000,04/17.0414/2009,2000,g  9.0,4.0
# From MPC 75710
P/2009 O3 (Hill),e,16.2832,183.6909,154.4572,7.767938,0.0455245,0.68786110,210.3273,01/18.0/2022,2000,g 12.5,4.0
# From MPC 68902
P/2009 Q5 (McNaught),e,40.9883,160.2796,209.0579,7.433116,0.0486349,0.60948903,219.5335,01/18.0/2022,2000,g 10.0,4.0
# From MPC112389
P/2009 T2 (La Sagra),e,27.5855,215.8599,216.3489,7.721268,0.0459379,0.76585161,202.3056,01/18.0/2022,2000,g 14.0,4.0
# From MPC105235
P/2009 WX51 (Catalina),e,9.5935,31.6183,118.1937,3.082318,0.1821327,0.73993863,77.9073,01/18.0/2022,2000,g 19.0,2.0
# From MPC 74247
P/2009 Y2 (Kowalski),e,29.9460,262.0315,172.1335,6.550153,0.0587932,0.63636175,255.3362,01/18.0/2022,2000,g 13.0,4.0
# From MPC 75711
P/2010 A3 (Hill),e,14.8230,63.7342,42.2218,6.081891,0.0657122,0.73360801,284.4807,01/18.0/2022,2000,g 14.0,4.0
# From MPC 75008
P/2010 C1 (Scotti),e,9.1282,141.8865,3.5423,7.103860,0.0520550,0.25938192,231.8853,01/18.0/2022,2000,g  9.5,4.0
# From MPC 75008
P/2010 D2 (WISE),e,57.0901,319.8877,119.9850,6.718815,0.0565933,0.45120831,246.8117,01/18.0/2022,2000,g 16.0,4.0
# From MPC 75009
P/2010 E2 (Jarnac),e,15.3884,177.8213,8.3383,8.639857,0.0388101,0.71958923,167.4093,01/18.0/2022,2000,g 14.0,4.0
# From MPC 72851
P/2010 H2 (Vales),e,14.2760,64.1909,128.0459,3.832882,0.1313457,0.19616345,209.2205,01/18.0/2022,2000,g  6.0,4.0
# From MPC 70361
P/2010 H3 (SOHO),e,23.0629,77.0834,26.1620,3.036942,0.1862299,0.98535466,0.0000,02/07.9334/2021,2000,g 20.0,2.0
# From MPC 73463
P/2010 H4 (Scotti),e,2.3180,44.7320,179.4504,6.595596,0.0581866,0.26659910,246.5248,01/18.0/2022,2000,g 10.5,4.0
# From MPC 74637
P/2010 H5 (Scotti),e,14.0595,24.7990,174.9955,7.166405,0.0513750,0.15274705,221.6489,01/18.0/2022,2000,g 13.0,2.0
# From MPC 98558
P/2010 J3 (McMillan),e,13.2776,106.4390,157.5969,8.976474,0.0366476,0.72629655,152.4867,01/18.0/2022,2000,g 11.0,4.0
# From MPC 84315
P/2010 JC81 (WISE),e,38.7890,30.8583,12.4242,8.107749,0.0426927,0.77745325,167.5284,01/18.0/2022,2000,g  9.0,4.0
# From MPC 74248
P/2010 T2 (PANSTARRS),e,7.8883,58.7178,353.0546,5.546451,0.0754538,0.32206525,300.2671,01/18.0/2022,2000,g 11.5,4.0
# From MPC 98558
P/2010 TO20 (LINEAR-Grauer),e,2.4788,43.2892,267.1023,5.831891,0.0699826,0.05537943,338.3442,01/18.0/2022,2000,g  9.0,4.0
# From MPC 82316
P/2010 U1 (Boattini),e,8.2171,280.6943,86.0887,6.506055,0.0593919,0.24884095,259.5660,01/18.0/2022,2000,g  9.5,4.0
# From MPEC 2021-R75
C/2010 U3 (Boattini),e,55.5402,43.0067,88.0418,2443,0.0000082,0.99654382,0.0000,02/25.2130/2019,2000,g  1.0,4.0
# From MPC 79021
P/2010 UH55 (Spacewatch),e,8.0394,232.9223,225.1562,6.653947,0.0574229,0.56345388,226.1793,01/18.0/2022,2000,g 11.0,4.0
# From MPC 75009
P/2010 WK (LINEAR),e,11.4015,11.3313,40.9681,5.761987,0.0712600,0.69023479,294.7505,01/18.0/2022,2000,g 14.5,2.0
# From MPC 84021
P/2011 C2 (Gibbs),e,10.8859,12.1223,160.7346,7.412963,0.0488333,0.26895802,179.5622,01/18.0/2022,2000,g  9.0,4.0
# From MPC 79866
P/2011 FR143 (Lemmon),e,15.9773,190.9500,350.0243,6.861025,0.0548429,0.45051956,218.3489,01/18.0/2022,2000,g 14.0,2.0
# From MPC 82317
P/2011 JB15 (Spacewatch-Boattini),e,19.1475,153.5810,111.0717,7.361278,0.0493485,0.31685143,180.1248,01/18.0/2022,2000,g  9.0,4.0
# From MPC 87913
P/2011 N1 (ASH),e,35.7434,77.5852,330.3523,6.247050,0.0631236,0.54451936,222.8013,01/18.0/2022,2000,g 11.5,4.0
# From MPC 75714
P/2011 NO1 (Elenin),e,15.2462,295.8171,263.7459,5.527773,0.0758366,0.77454359,304.7820,01/18.0/2022,2000,g 15.0,4.0
# From MPC 82318
